[{"OBJECT_NAME":"MONOLITH","OBJECT_ID":"2021-068A","EPOCH":"2026-03-09T13:05:30.210720","MEAN_MOTION":15.08010119,"ECCENTRICITY":0.00026796,"INCLINATION":37.022,"RA_OF_ASC_NODE":141.2957,"ARG_OF_PERICENTER":131.6464,"MEAN_ANOMALY":228.4511,"EPHEMERIS_TYPE":0,"CLASSIFICATION_TYPE":"U","NORAD_CAT_ID":49052,"ELEMENT_SET_NO":999,"REV_AT_EPOCH":25222,"BSTAR":0.00053655804,"MEAN_MOTION_DOT":8.348e-5,"MEAN_MOTION_DDOT":0},{"OBJECT_NAME":"STARLINK-5156","OBJECT_ID":"2022-125K","EPOCH":"2026-03-09T16:31:23.827872","MEAN_MOTION":15.08832105,"ECCENTRICITY":0.00011216,"INCLINATION":53.2165,"RA_OF_ASC_NODE":224.0063,"ARG_OF_PERICENTER":83.5147,"MEAN_ANOMALY":276.5973,"EPHEMERIS_TYPE":0,"CLASSIFICATION_TYPE":"U","NORAD_CAT_ID":53973,"ELEMENT_SET_NO":999,"REV_AT_EPOCH":18932,"BSTAR":-4.951389e-6,"MEAN_MOTION_DOT":-3.67e-6,"MEAN_MOTION_DDOT":0}]
